H1 CPF 01  gfz 2022 04 22 00  6121 terrasarx 
H2 0702601  6201 31698    2022 04 22 00 59 42 2022 04 27 00 00 42   120 1 1  0 0 0
H9
10 0 59693  62622.000000  0   -4362312.990    -16739.555  -5338730.450
10 0 59693  62742.000000  0   -3634654.500    204101.645  -5855214.240
10 0 59693  62862.000000  0   -2840222.296    408083.391  -6269391.331
10 0 59693  62982.000000  0   -1993173.752    590628.097  -6574114.658
10 0 59693  63102.000000  0   -1108622.675    747789.253  -6764136.414
10 0 59693  63222.000000  0    -202371.695    876331.471  -6836188.272
10 0 59693  63342.000000  0     709363.463    973793.490  -6789030.151
10 0 59693  63462.000000  0    1610236.073   1038533.049  -6623471.527
10 0 59693  63582.000000  0    2484056.067   1069754.411  -6342360.143
10 0 59693  63702.000000  0    3315075.820   1067517.292  -5950537.945
10 0 59693  63822.000000  0    4088270.113   1032726.797  -5454765.093
10 0 59693  63942.000000  0    4789606.997    967104.540  -4863614.842
10 0 59693  64062.000000  0    5406306.799    873141.872  -4187336.927
10 0 59693  64182.000000  0    5927082.438    754035.428  -3437689.654
10 0 59693  64302.000000  0    6342355.835    613605.795  -2627743.740
10 0 59693  64422.000000  0    6644446.718    456201.464  -1771659.980
10 0 59693  64542.000000  0    6827728.112    286589.327   -884441.941
10 0 59693  64662.000000  0    6888741.507    109834.472     18330.358
10 0 59693  64782.000000  0    6826270.721    -68827.097    920779.242
10 0 59693  64902.000000  0    6641371.832   -244121.138   1807016.633
10 0 59693  65022.000000  0    6337356.967   -410868.695   2661433.177
10 0 59693  65142.000000  0    5919731.323   -564117.483   3468982.321
10 0 59693  65262.000000  0    5396085.971   -699267.179   4215451.026
10 0 59693  65382.000000  0    4775952.459   -812185.717   4887713.936
10 0 59693  65502.000000  0    4070618.439   -899314.679   5473965.785
10 0 59693  65622.000000  0    3292911.640   -957758.855   5963926.018
10 0 59693  65742.000000  0    2456958.310   -985360.544   6349014.628
10 0 59693  65862.000000  0    1577920.768   -980756.417   6622496.558
10 0 59693  65982.000000  0     671718.163   -943416.215   6779594.750
10 0 59693  66102.000000  0    -245264.632   -873661.710   6817567.751
10 0 59693  66222.000000  0   -1156472.972   -772666.509   6735753.208
10 0 59693  66342.000000  0   -2045479.820   -642436.452   6535578.246
10 0 59693  66462.000000  0   -2896280.220   -485770.480   6220536.107
10 0 59693  66582.000000  0   -3693579.366   -306202.906   5796130.338
10 0 59693  66702.000000  0   -4423070.825   -107928.051   5269785.197
10 0 59693  66822.000000  0   -5071699.279    104291.607   4650721.818
10 0 59693  66942.000000  0   -5627901.977    325231.752   3949801.513
10 0 59693  67062.000000  0   -6081823.725    549325.683   3179338.277
10 0 59693  67182.000000  0   -6425501.258    770794.098   2352884.290
10 0 59693  67302.000000  0   -6653012.822    983782.445   1484989.721
10 0 59693  67422.000000  0   -6760588.635   1182501.875    590941.896
10 0 59693  67542.000000  0   -6746678.690   1361370.951   -313511.926
10 0 59693  67662.000000  0   -6611974.591   1515154.092  -1212451.336
10 0 59693  67782.000000  0   -6359385.981   1639092.564  -2090071.290
10 0 59693  67902.000000  0   -5993974.107   1729026.383  -2930967.303
10 0 59693  68022.000000  0   -5522841.545   1781503.015  -3720412.604
10 0 59693  68142.000000  0   -4954981.821   1793869.125  -4444618.055
10 0 59693  68262.000000  0   -4301095.281   1764344.735  -5090970.311
10 0 59693  68382.000000  0   -3573376.043   1692078.089  -5648244.686
10 0 59693  68502.000000  0   -2785276.639   1577180.582  -6106790.349
10 0 59693  68622.000000  0   -1951254.560   1420740.921  -6458687.231
10 0 59693  68742.000000  0   -1086504.279   1224819.172  -6697871.185
10 0 59693  68862.000000  0    -206682.703    992420.201  -6820226.766
10 0 59693  68982.000000  0     672368.000    727448.192  -6823649.527
10 0 59693  69102.000000  0    1534898.009    434642.521  -6708080.385
10 0 59693  69222.000000  0    2365526.904    119494.694  -6475506.915
10 0 59693  69342.000000  0    3149511.888   -211851.354  -6129932.664
10 0 59693  69462.000000  0    3873006.496   -552714.736  -5677315.082
10 0 59693  69582.000000  0    4523303.237   -896007.249  -5125472.390
10 0 59693  69702.000000  0    5089060.450  -1234375.657  -4483961.227
10 0 59693  69822.000000  0    5560507.541  -1560354.244  -3763921.876
10 0 59693  69942.000000  0    5929623.419  -1866524.134  -2977893.868
10 0 59693  70062.000000  0    6190284.476  -2145676.682  -2139603.736
10 0 59693  70182.000000  0    6338377.612  -2390977.144  -1263727.654
10 0 59693  70302.000000  0    6371875.066  -2596124.024   -365633.568
10 0 59693  70422.000000  0    6290868.877  -2755500.655    538892.820
10 0 59693  70542.000000  0    6097563.221  -2864314.502   1433932.624
10 0 59693  70662.000000  0    5796223.896  -2918720.600   2303723.559
10 0 59693  70782.000000  0    5393084.827  -2915925.977   3132946.304
10 0 59693  70902.000000  0    4896215.721  -2854271.566   3907002.252
10 0 59693  71022.000000  0    4315354.127  -2733289.423   4612274.413
10 0 59693  71142.000000  0    3661708.686  -2553736.317   5236369.536
10 0 59693  71262.000000  0    2947733.711  -2317601.386   5768336.393
10 0 59693  71382.000000  0    2186884.138  -2028086.997   6198853.759
10 0 59693  71502.000000  0    1393356.577  -1689565.324   6520388.405
10 0 59693  71622.000000  0     581820.645  -1307511.150   6727321.026
10 0 59693  71742.000000  0    -232854.223   -888411.807   6816038.423
10 0 59693  71862.000000  0   -1035870.892   -439655.968   6784991.823
10 0 59693  71982.000000  0   -1812771.930     30596.379   6634721.915
10 0 59693  72102.000000  0   -2549698.728    513561.871   6367850.155
10 0 59693  72222.000000  0   -3233638.540    999996.905   5989036.423
10 0 59693  72342.000000  0   -3852656.014   1480373.339   5504903.307
10 0 59693  72462.000000  0   -4396106.100   1945064.263   4923927.048
10 0 59693  72582.000000  0   -4854824.067   2384536.918   4256294.922
10 0 59693  72702.000000  0   -5221287.143   2789548.938   3513730.164
10 0 59693  72822.000000  0   -5489744.944   3151342.777   2709288.250
10 0 59693  72942.000000  0   -5656316.429   3461834.876   1857127.631
10 0 59693  73062.000000  0   -5719051.094   3713795.766    972257.117
10 0 59693  73182.000000  0   -5677949.914   3901014.408     70264.063
10 0 59693  73302.000000  0   -5534946.977   4018443.058   -832967.936
10 0 59693  73422.000000  0   -5293852.645   4062319.718  -1721547.671
10 0 59693  73542.000000  0   -4960258.248   4030264.538  -2579865.870
10 0 59693  73662.000000  0   -4541404.143   3921346.463  -3392876.384
10 0 59693  73782.000000  0   -4046016.937   3736119.813  -4146363.264
10 0 59693  73902.000000  0   -3484120.697   3476630.870  -4827187.922
10 0 59693  74022.000000  0   -2866827.184   3146394.774  -5423512.781
10 0 59693  74142.000000  0   -2206112.336   2750344.566  -5924998.317
10 0 59693  74262.000000  0   -1514580.891   2294753.378  -6322973.294
10 0 59693  74382.000000  0    -805224.735   1787130.555  -6610572.772
10 0 59693  74502.000000  0     -91181.467   1236096.328  -6782845.040
10 0 59693  74622.000000  0     614503.853    651235.816  -6836827.425
10 0 59693  74742.000000  0    1299111.052     42935.613  -6771593.171
10 0 59693  74862.000000  0    1950469.875   -577797.209  -6588265.192
10 0 59693  74982.000000  0    2557170.731  -1199529.072  -6289998.016
10 0 59693  75102.000000  0    3108761.533  -1810605.178  -5881929.582
10 0 59693  75222.000000  0    3595926.611  -2399362.551  -5371102.355
10 0 59693  75342.000000  0    4010647.618  -2954350.952  -4766353.995
10 0 59693  75462.000000  0    4346339.738  -3464555.885  -4078173.936
10 0 59693  75582.000000  0    4597961.204  -3919617.717  -3318531.513
10 0 59693  75702.000000  0    4762096.243  -4310044.770  -2500676.370
10 0 59693  75822.000000  0    4837007.246  -4627414.853  -1638911.589
10 0 59693  75942.000000  0    4822654.495  -4864560.514   -748344.275
10 0 59693  76062.000000  0    4720680.983  -5015732.732    155383.140
10 0 59693  76182.000000  0    4534362.835  -5076737.420   1056374.101
10 0 59693  76302.000000  0    4268527.095  -5045041.681   1938766.415
10 0 59693  76422.000000  0    3929436.548  -4919845.926   2787020.405
10 0 59693  76542.000000  0    3524647.210  -4702121.828   3586200.110
10 0 59693  76662.000000  0    3062840.601  -4394613.628   4322242.823
10 0 59693  76782.000000  0    2553635.859  -4001803.141   4982209.972
10 0 59693  76902.000000  0    2007386.780  -3529840.179   5554514.944
10 0 59693  77022.000000  0    1434968.244  -2986440.532   6029124.767
10 0 59693  77142.000000  0     847556.753  -2380753.049   6397731.014
10 0 59693  77262.000000  0     256410.550  -1723200.929   6653888.811
10 0 59693  77382.000000  0    -327346.395  -1025299.443   6793123.028
10 0 59693  77502.000000  0    -892932.552   -299452.355   6813002.267
10 0 59693  77622.000000  0   -1430106.981    441268.974   6713178.385
10 0 59693  77742.000000  0   -1929354.173   1183360.459   6495392.083
10 0 59693  77862.000000  0   -2382052.517   1913130.495   6163444.456
10 0 59693  77982.000000  0   -2780624.036   2616951.931   5723134.897
10 0 59693  78102.000000  0   -3118663.080   3281517.581   5182166.129
10 0 59693  78222.000000  0   -3391042.797   3894094.384   4550015.904
10 0 59693  78342.000000  0   -3593996.167   4442772.150   3837776.476
10 0 59693  78462.000000  0   -3725169.833   4916701.404   3057963.322
10 0 59693  78582.000000  0   -3783649.255   5306314.980   2224295.473
10 0 59693  78702.000000  0   -3769953.905   5603526.499   1351451.086
10 0 59693  78822.000000  0   -3686003.044   5801901.798    454804.857
10 0 59693  78942.000000  0   -3535053.899   5896800.876   -449849.612
10 0 59693  79062.000000  0   -3321611.147   5885483.391  -1346588.402
99
